{
  "links" : {
    "next" : "https://api.nasa.gov/neo/rest/v1/feed?start_date=2012-01-23&end_date=2012-01-23&detailed=true&api_key=t0TVs3DtDT2H8Oy2Zy8m2eVrNsAVKAexjcZXUckd",
    "prev" : "https://api.nasa.gov/neo/rest/v1/feed?start_date=2012-01-21&end_date=2012-01-21&detailed=true&api_key=t0TVs3DtDT2H8Oy2Zy8m2eVrNsAVKAexjcZXUckd",
    "self" : "https://api.nasa.gov/neo/rest/v1/feed?start_date=2012-01-22&end_date=2012-01-22&detailed=true&api_key=t0TVs3DtDT2H8Oy2Zy8m2eVrNsAVKAexjcZXUckd"
  },
  "element_count" : 7,
  "near_earth_objects" : {
    "2012-01-22" : [ {
      "links" : {
        "self" : "https://api.nasa.gov/neo/rest/v1/neo/3601341?api_key=t0TVs3DtDT2H8Oy2Zy8m2eVrNsAVKAexjcZXUckd"
      },
      "neo_reference_id" : "3601341",
      "name" : "(2012 EY11)",
      "nasa_jpl_url" : "http://ssd.jpl.nasa.gov/sbdb.cgi?sstr=3601341",
      "absolute_magnitude_h" : 21.9,
      "estimated_diameter" : {
        "kilometers" : {
          "estimated_diameter_min" : 0.1108038821,
          "estimated_diameter_max" : 0.2477650126
        },
        "meters" : {
          "estimated_diameter_min" : 110.8038821264,
          "estimated_diameter_max" : 247.7650126055
        },
        "miles" : {
          "estimated_diameter_min" : 0.068850319,
          "estimated_diameter_max" : 0.1539539936
        },
        "feet" : {
          "estimated_diameter_min" : 363.5298086356,
          "estimated_diameter_max" : 812.8773639568
        }
      },
      "is_potentially_hazardous_asteroid" : true,
      "close_approach_data" : [ {
        "close_approach_date" : "2012-01-22",
        "epoch_date_close_approach" : 1327219200000,
        "relative_velocity" : {
          "kilometers_per_second" : "4.8991961885",
          "kilometers_per_hour" : "17637.1062784365",
          "miles_per_hour" : "10959.011953954"
        },
        "miss_distance" : {
          "astronomical" : "0.1521735966",
          "lunar" : "59.195526123",
          "kilometers" : "22764846",
          "miles" : "14145419"
        },
        "orbiting_body" : "Earth"
      } ],
      "orbital_data" : {
        "orbit_id" : "24",
        "orbit_determination_date" : "2017-05-17 06:17:44",
        "orbit_uncertainty" : "0",
        "minimum_orbit_intersection" : ".0286286",
        "jupiter_tisserand_invariant" : "5.449",
        "epoch_osculation" : "2458000.5",
        "eccentricity" : ".1507699153045407",
        "semi_major_axis" : "1.148268687340644",
        "inclination" : "9.020639970487228",
        "ascending_node_longitude" : "167.6137688391711",
        "orbital_period" : "449.431708700594",
        "perihelion_distance" : ".975144314603439",
        "perihelion_argument" : "238.8674603003427",
        "aphelion_distance" : "1.321393060077849",
        "perihelion_time" : "2458122.143529028153",
        "mean_anomaly" : "262.5621254522816",
        "mean_motion" : ".801011573128294",
        "equinox" : "J2000"
      }
    } ]
  }
}